NORAD_CAT_ID,OBJECT_NAME,OBJECT_TYPE,EPOCH,MEAN_MOTION,ECCENTRICITY,INCLINATION,RA_OF_ASC_NODE,ARG_OF_PERICENTER,MEAN_ANOMALY,BSTAR,MEAN_MOTION_DOT,MEAN_MOTION_DDOT,TLE_LINE0,TLE_LINE1,TLE_LINE2,SEMIMAJOR_AXIS,PERIOD,APOGEE,PERIGEE,DECAYED
53983.0,STARLINK-5103,PAYLOAD,2023-12-25 23:52:36,15.08839772,0.0001292,53.2153,216.3716,86.1014,274.0126,0.00018196,2.609e-05,0.0,0 STARLINK-5103,1 53983U 22125V   23359.99486154  .00002609  00000-0  18196-3 0  9993,2 53983  53.2153 216.3716 0001292  86.1014 274.0126 15.08839772 68128,6917.881,95.438,540.64,538.852,0.0
53983.0,STARLINK-5103,PAYLOAD,2023-12-26 20:32:36,15.08843517,0.000144,53.2149,212.5072,74.4213,285.6938,9.6179e-05,1.243e-05,0.0,0 STARLINK-5103,1 53983U 22125V   23360.85598066  .00001243  00000-0  96179-4 0  9997,2 53983  53.2149 212.5072 0001440  74.4213 285.6938 15.08843517 68257,6917.87,95.437,540.731,538.738,0.0
53983.0,STARLINK-5103,PAYLOAD,2023-12-27 20:23:23,15.08843584,0.0001384,53.2155,208.0459,78.9023,281.2124,8.2474e-05,1.025e-05,0.0,0 STARLINK-5103,1 53983U 22125V   23361.84957973  .00001025  00000-0  82474-4 0  9994,2 53983  53.2155 208.0459 0001384  78.9023 281.2124 15.08843584 68408,6917.869,95.437,540.692,538.777,0.0
53983.0,STARLINK-5103,PAYLOAD,2023-12-27 23:34:09,15.0884458,0.0001357,53.2154,207.4509,80.7837,279.3308,8.3291e-05,1.038e-05,0.0,0 STARLINK-5103,1 53983U 22125V   23361.98205848  .00001038  00000-0  83291-4 0  9998,2 53983  53.2154 207.4509 0001357  80.7837 279.3308 15.08844580 68498,6917.866,95.437,540.67,538.793,0.0
53983.0,STARLINK-5103,PAYLOAD,2023-12-28 20:14:10,15.08840553,0.0001402,53.2155,203.5828,97.0014,263.1138,5.3916e-05,5.7e-06,0.0,0 STARLINK-5103,1 53983U 22125V   23362.84317935  .00000570  00000-0  53916-4 0  9996,2 53983  53.2155 203.5828 0001402  97.0014 263.1138 15.08840553 68554,6917.879,95.438,540.714,538.774,0.0
53983.0,STARLINK-5103,PAYLOAD,2023-12-28 23:24:57,15.08839958,0.0001438,53.2157,202.9891,98.4878,261.6278,4.6228e-05,4.48e-06,0.0,0 STARLINK-5103,1 53983U 22125V   23362.97565981  .00000448  00000-0  46228-4 0  9998,2 53983  53.2157 202.9891 0001438  98.4878 261.6278 15.08839958 68646,6917.881,95.438,540.74,538.751,0.0
53983.0,STARLINK-5103,PAYLOAD,2023-12-29 20:04:57,15.0883776,0.0001412,53.2156,199.123,97.775,262.3402,3.6115e-05,2.87e-06,0.0,0 STARLINK-5103,1 53983U 22125V   23363.83678209  .00000287  00000-0  36115-4 0  9997,2 53983  53.2156 199.1230 0001412  97.7750 262.3402 15.08837760 68705,6917.887,95.438,540.729,538.775,0.0
53983.0,STARLINK-5103,PAYLOAD,2023-12-30 13:34:12,15.08839733,0.0001382,53.2157,195.852,94.3314,265.7836,7.086e-05,8.4e-06,0.0,0 STARLINK-5103,1 53983U 22125V   23364.56542057  .00000840  00000-0  70860-4 0  9999,2 53983  53.2157 195.8520 0001382  94.3314 265.7836 15.08839733 68818,6917.881,95.438,540.702,538.79,0.0
53983.0,STARLINK-5103,PAYLOAD,2023-12-30 19:55:44,15.08842258,0.0001392,53.2157,194.6626,94.7102,265.4049,8.7904e-05,1.111e-05,0.0,0 STARLINK-5103,1 53983U 22125V   23364.83037847  .00001111  00000-0  87904-4 0  9994,2 53983  53.2157 194.6626 0001392  94.7102 265.4049 15.08842258 68923,6917.873,95.437,540.701,538.776,0.0
53983.0,STARLINK-5103,PAYLOAD,2023-12-31 18:11:09,15.08837115,0.0001367,53.2154,190.5001,94.7348,265.38,4.6491e-05,4.52e-06,0.0,0 STARLINK-5103,1 53983U 22125V   23365.75774367  .00000452  00000-0  46491-4 0  9994,2 53983  53.2154 190.5001 0001367  94.7348 265.3800 15.08837115 69062,6917.889,95.438,540.7,538.809,0.0
53983.0,STARLINK-5103,PAYLOAD,2024-01-01 11:40:23,15.08838486,0.0001388,53.2154,187.2287,95.5992,264.5158,1.2206e-05,-9.4e-07,0.0,0 STARLINK-5103,1 53983U 22125V   24001.48638503 -.00000094  00000-0  12206-4 0  9993,2 53983  53.2154 187.2287 0001388  95.5992 264.5158 15.08838486 69102,6917.885,95.438,540.71,538.79,0.0
53983.0,STARLINK-5103,PAYLOAD,2024-01-01 19:37:19,15.0883907,0.0001361,53.2154,185.7424,92.6125,267.5023,1.1839e-05,-9.9e-07,0.0,0 STARLINK-5103,1 53983U 22125V   24001.81758461 -.00000099  00000-0  11839-4 0  9992,2 53983  53.2154 185.7424 0001361  92.6125 267.5023 15.08839070 69222,6917.883,95.438,540.69,538.807,0.0
53983.0,STARLINK-5103,PAYLOAD,2024-01-02 11:31:10,15.0883906,0.0001319,53.2155,182.7687,89.8995,270.2148,6.3586e-05,7.24e-06,0.0,0 STARLINK-5103,1 53983U 22125V   24002.47998391  .00000724  00000-0  63586-4 0  9993,2 53983  53.2155 182.7687 0001319  89.8995 270.2148 15.08839060 69258,6917.883,95.438,540.661,538.836,0.0
53983.0,STARLINK-5103,PAYLOAD,2024-01-02 19:28:06,15.08840753,0.0001347,53.2155,181.2818,89.173,270.9417,7.2971e-05,8.74e-06,0.0,0 STARLINK-5103,1 53983U 22125V   24002.81118283  .00000874  00000-0  72971-4 0  9999,2 53983  53.2155 181.2818 0001347  89.1730 270.9417 15.08840753 69302,6917.878,95.438,540.675,538.811,0.0
53983.0,STARLINK-5103,PAYLOAD,2024-01-03 11:21:58,15.08836273,0.0001422,53.2155,178.3085,81.2863,278.829,3.7213e-05,3.04e-06,0.0,0 STARLINK-5103,1 53983U 22125V   24003.47358804  .00000304  00000-0  37213-4 0  9995,2 53983  53.2155 178.3085 0001422  81.2863 278.8290 15.08836273 69475,6917.892,95.438,540.741,538.773,0.0
53983.0,STARLINK-5103,PAYLOAD,2024-01-03 17:43:30,15.08836285,0.0001415,53.2156,177.1189,81.9023,278.213,3.1807e-05,2.18e-06,0.0,0 STARLINK-5103,1 53983U 22125V   24003.73854870  .00000218  00000-0  31807-4 0  9995,2 53983  53.2156 177.1189 0001415  81.9023 278.2130 15.08836285 69442,6917.892,95.438,540.736,538.778,0.0
53983.0,STARLINK-5103,PAYLOAD,2024-01-04 17:34:17,15.08844752,0.0001435,53.2159,172.6584,80.202,279.9134,7.2759e-05,8.7e-06,0.0,0 STARLINK-5103,1 53983U 22125V   24004.73214158  .00000870  00000-0  72759-4 0  9990,2 53983  53.2159 172.6584 0001435  80.2020 279.9134 15.08844752 69669,6917.866,95.437,540.724,538.738,0.0
53983.0,STARLINK-5103,PAYLOAD,2024-01-05 11:03:31,15.08840349,0.0001598,53.2169,169.3881,64.5245,295.5912,4.0561e-05,3.58e-06,0.0,0 STARLINK-5103,1 53983U 22125V   24005.46078645  .00000358  00000-0  40561-4 0  9997,2 53983  53.2169 169.3881 0001598  64.5245 295.5912 15.08840349 69775,6917.879,95.438,540.85,538.639,0.0
53983.0,STARLINK-5103,PAYLOAD,2024-01-05 14:14:18,15.08839951,0.0001414,53.2167,168.7925,75.6523,284.4626,3.2504e-05,2.29e-06,0.0,0 STARLINK-5103,1 53983U 22125V   24005.59326609  .00000229  00000-0  32504-4 0  9992,2 53983  53.2167 168.7925 0001414  75.6523 284.4626 15.08839951 69725,6917.881,95.438,540.724,538.767,0.0
53983.0,STARLINK-5103,PAYLOAD,2024-01-05 17:25:04,15.08839634,0.0001366,53.217,168.1975,82.7742,277.3405,2.6073e-05,1.27e-06,0.0,0 STARLINK-5103,1 53983U 22125V   24005.72574601  .00000127  00000-0  26073-4 0  9995,2 53983  53.2170 168.1975 0001366  82.7742 277.3405 15.08839634 69742,6917.882,95.438,540.691,538.802,0.0
53983.0,STARLINK-5103,PAYLOAD,2024-01-06 10:54:19,15.08837826,0.000142,53.2177,164.9286,83.2921,276.8232,-1.2922e-06,-3.09e-06,0.0,0 STARLINK-5103,1 53983U 22125V   24006.45438871 -.00000309  00000-0 -12922-5 0  9997,2 53983  53.2177 164.9286 0001420  83.2921 276.8232 15.08837826 69859,6917.887,95.438,540.734,538.77,0.0
53983.0,STARLINK-5103,PAYLOAD,2024-01-06 17:15:51,15.08842155,0.0001065,53.2159,163.7369,83.1306,276.9807,-3.3164e-05,-8.16e-06,0.0,0 STARLINK-5103,1 53983U 22125V   24006.71934651 -.00000816  00000-0 -33164-4 0  9996,2 53983  53.2159 163.7369 0001065  83.1306 276.9807 15.08842155 69961,6917.874,95.437,540.476,539.002,0.0
53983.0,STARLINK-5103,PAYLOAD,2024-01-07 13:55:52,15.08836458,0.0001269,53.2159,159.8711,92.0325,268.0812,4.0773e-05,3.61e-06,0.0,0 STARLINK-5103,1 53983U 22125V   24007.58046939  .00000361  00000-0  40773-4 0  9992,2 53983  53.2159 159.8711 0001269  92.0325 268.0812 15.08836458 70020,6917.891,95.438,540.634,538.878,0.0
53983.0,STARLINK-5103,PAYLOAD,2024-01-07 17:06:38,15.08839454,0.0001272,53.216,159.2762,93.1803,266.9334,6.303e-05,7.15e-06,0.0,0 STARLINK-5103,1 53983U 22125V   24007.71294698  .00000715  00000-0  63030-4 0  9998,2 53983  53.2160 159.2762 0001272  93.1803 266.9334 15.08839454 70046,6917.882,95.438,540.627,538.867,0.0
53983.0,STARLINK-5103,PAYLOAD,2024-01-08 13:46:39,15.08837175,0.0001254,53.2159,155.4107,93.9391,266.1744,4.2757e-05,3.93e-06,0.0,0 STARLINK-5103,1 53983U 22125V   24008.57407050  .00000393  00000-0  42757-4 0  9996,2 53983  53.2159 155.4107 0001254  93.9391 266.1744 15.08837175 70174,6917.889,95.438,540.622,538.887,0.0
53983.0,STARLINK-5103,PAYLOAD,2024-01-08 15:22:02,15.08838031,0.0001262,53.2159,155.1134,93.6105,266.5031,4.9828e-05,5.05e-06,0.0,0 STARLINK-5103,1 53983U 22125V   24008.64030990  .00000505  00000-0  49828-4 0  9990,2 53983  53.2159 155.1134 0001262  93.6105 266.5031 15.08838031 70254,6917.886,95.438,540.624,538.878,0.0
53983.0,STARLINK-5103,PAYLOAD,2024-01-09 13:37:26,15.0884071,0.0001245,53.2159,150.9513,96.8187,263.2947,4.5513e-05,4.37e-06,0.0,0 STARLINK-5103,1 53983U 22125V   24009.56766978  .00000437  00000-0  45513-4 0  9995,2 53983  53.2159 150.9513 0001245  96.8187 263.2947 15.08840710 70329,6917.878,95.438,540.604,538.882,0.0
53983.0,STARLINK-5103,PAYLOAD,2024-01-09 16:48:12,15.08844351,0.000124,53.216,150.3561,91.9317,268.1817,7.5175e-05,9.09e-06,0.0,0 STARLINK-5103,1 53983U 22125V   24009.70014674  .00000909  00000-0  75175-4 0  9991,2 53983  53.2160 150.3561 0001240  91.9317 268.1817 15.08844351 70419,6917.867,95.437,540.59,538.874,0.0
53983.0,STARLINK-5103,PAYLOAD,2024-01-10 08:42:04,15.08837752,0.0001686,53.2168,147.3847,63.023,297.0934,3.3906e-05,2.52e-06,0.0,0 STARLINK-5103,1 53983U 22125V   24010.36255487  .00000252  00000-0  33906-4 0  9991,2 53983  53.2168 147.3847 0001686  63.0230 297.0934 15.08837752 70517,6917.887,95.438,540.919,538.586,0.0
53983.0,STARLINK-5103,PAYLOAD,2024-01-11 14:54:24,15.08839019,0.0002081,53.2172,141.736,55.9347,304.1842,0.00010593,1.398e-05,0.0,0 STARLINK-5103,1 53983U 22125V   24011.62111393  .00001398  00000-0  10593-3 0  9996,2 53983  53.2172 141.7360 0002081  55.9347 304.1842 15.08839019 70638,6917.883,95.438,541.188,538.309,0.0
